CTC2_L_00155001-01
1 10000U 23480BL  26075.70042824  .00000000  00000+0  00000-0 0  9994
2 10000  55.0000   0.0000 0000000   0.0000   0.0000 14.98995063    18
CTC2_L_00155001-02
1 10001U 22161PI  26075.70042824  .00000000  00000+0  00000-0 0  9990
2 10001  55.0000   0.0000 0000000   0.0000  90.0000 14.98995063    18
CTC2_L_00155001-03
1 10002U 26940RQ  26075.70042824  .00000000  00000+0  00000-0 0  9990
2 10002  55.0000   0.0000 0000000   0.0000 180.0000 14.98995063    19
CTC2_L_00155001-04
1 10003U 24218MK  26075.70042824  .00000000  00000+0  00000-0 0  9997
2 10003  55.0000   0.0000 0000000   0.0000 270.0000 14.98995063    10
CTC2_L_00155002-01
1 10004U 26532LL  26075.70042824  .00000000  00000+0  00000-0 0  9999
2 10004  55.0000  12.0000 0000000   0.0000  12.0000 14.98995063    18
CTC2_L_00155002-02
1 10005U 26671CY  26075.70042824  .00000000  00000+0  00000-0 0  9994
2 10005  55.0000  12.0000 0000000   0.0000 102.0000 14.98995063    19
CTC2_L_00155002-03
1 10006U 24643FU  26075.70042824  .00000000  00000+0  00000-0 0  9992
2 10006  55.0000  12.0000 0000000   0.0000 192.0000 14.98995063    19
CTC2_L_00155002-04
1 10007U 22374QI  26075.70042824  .00000000  00000+0  00000-0 0  9992
2 10007  55.0000  12.0000 0000000   0.0000 282.0000 14.98995063    10
CTC2_L_00155003-01
1 10008U 25996KS  26075.70042824  .00000000  00000+0  00000-0 0  9996
2 10008  55.0000  24.0000 0000000   0.0000  24.0000 14.98995063    18
CTC2_L_00155003-02
1 10009U 25430EA  26075.70042824  .00000000  00000+0  00000-0 0  9990
2 10009  55.0000  24.0000 0000000   0.0000 114.0000 14.98995063    19
CTC2_L_00155003-03
1 10010U 22318YR  26075.70042824  .00000000  00000+0  00000-0 0  9994
2 10010  55.0000  24.0000 0000000   0.0000 204.0000 14.98995063    11
CTC2_L_00155003-04
1 10011U 23262SW  26075.70042824  .00000000  00000+0  00000-0 0  9994
2 10011  55.0000  24.0000 0000000   0.0000 294.0000 14.98995063    11
CTC2_L_00155004-01
1 10012U 26829FW  26075.70042824  .00000000  00000+0  00000-0 0  9997
2 10012  55.0000  36.0000 0000000   0.0000  36.0000 14.98995063    19
CTC2_L_00155004-02
1 10013U 22321DZ  26075.70042824  .00000000  00000+0  00000-0 0  9991
2 10013  55.0000  36.0000 0000000   0.0000 126.0000 14.98995063    10
CTC2_L_00155004-03
1 10014U 25334HJ  26075.70042824  .00000000  00000+0  00000-0 0  9999
2 10014  55.0000  36.0000 0000000   0.0000 216.0000 14.98995063    11
CTC2_L_00155004-04
1 10015U 25447JG  26075.70042824  .00000000  00000+0  00000-0 0  9995
2 10015  55.0000  36.0000 0000000   0.0000 306.0000 14.98995063    12
CTC2_L_00155005-01
1 10016U 22904PI  26075.70042824  .00000000  00000+0  00000-0 0  9991
2 10016  55.0000  48.0000 0000000   0.0000  48.0000 14.98995063    19
CTC2_L_00155005-02
1 10017U 22665JD  26075.70042824  .00000000  00000+0  00000-0 0  9996
2 10017  55.0000  48.0000 0000000   0.0000 138.0000 14.98995063    10
CTC2_L_00155005-03
1 10018U 23315QF  26075.70042824  .00000000  00000+0  00000-0 0  9990
2 10018  55.0000  48.0000 0000000   0.0000 228.0000 14.98995063    11
CTC2_L_00155005-04
1 10019U 26015SB  26075.70042824  .00000000  00000+0  00000-0 0  9991
2 10019  55.0000  48.0000 0000000   0.0000 318.0000 14.98995063    12
CTC2_L_00155006-01
1 10020U 25810AM  26075.70042824  .00000000  00000+0  00000-0 0  9995
2 10020  55.0000  60.0000 0000000   0.0000  60.0000 14.98995063    12
CTC2_L_00155006-02
1 10021U 23064QK  26075.70042824  .00000000  00000+0  00000-0 0  9995
2 10021  55.0000  60.0000 0000000   0.0000 150.0000 14.98995063    13
CTC2_L_00155006-03
1 10022U 23545DE  26075.70042824  .00000000  00000+0  00000-0 0  9990
2 10022  55.0000  60.0000 0000000   0.0000 240.0000 14.98995063    14
CTC2_L_00155006-04
1 10023U 24082TG  26075.70042824  .00000000  00000+0  00000-0 0  9998
2 10023  55.0000  60.0000 0000000   0.0000 330.0000 14.98995063    15
CTC2_L_00155007-01
1 10024U 22502TD  26075.70042824  .00000000  00000+0  00000-0 0  9994
2 10024  55.0000  72.0000 0000000   0.0000  72.0000 14.98995063    12
CTC2_L_00155007-02
1 10025U 22544XH  26075.70042824  .00000000  00000+0  00000-0 0  9991
2 10025  55.0000  72.0000 0000000   0.0000 162.0000 14.98995063    13
CTC2_L_00155007-03
1 10026U 24070DK  26075.70042824  .00000000  00000+0  00000-0 0  9998
2 10026  55.0000  72.0000 0000000   0.0000 252.0000 14.98995063    14
CTC2_L_00155007-04
1 10027U 22351MZ  26075.70042824  .00000000  00000+0  00000-0 0  9999
2 10027  55.0000  72.0000 0000000   0.0000 342.0000 14.98995063    15
CTC2_L_00155008-01
1 10028U 22121QG  26075.70042824  .00000000  00000+0  00000-0 0  9995
2 10028  55.0000  84.0000 0000000   0.0000  84.0000 14.98995063    12
CTC2_L_00155008-02
1 10029U 24746PN  26075.70042824  .00000000  00000+0  00000-0 0  9991
2 10029  55.0000  84.0000 0000000   0.0000 174.0000 14.98995063    13
CTC2_L_00155008-03
1 10030U 23048KR  26075.70042824  .00000000  00000+0  00000-0 0  9997
2 10030  55.0000  84.0000 0000000   0.0000 264.0000 14.98995063    15
CTC2_L_00155008-04
1 10031U 26985BW  26075.70042824  .00000000  00000+0  00000-0 0  9991
2 10031  55.0000  84.0000 0000000   0.0000 354.0000 14.98995063    16
CTC2_L_00155009-01
1 10032U 23535AE  26075.70042824  .00000000  00000+0  00000-0 0  9990
2 10032  55.0000  96.0000 0000000   0.0000  96.0000 14.98995063    13
CTC2_L_00155009-02
1 10033U 22603WA  26075.70042824  .00000000  00000+0  00000-0 0  9996
2 10033  55.0000  96.0000 0000000   0.0000 186.0000 14.98995063    14
CTC2_L_00155009-03
1 10034U 23692EB  26075.70042824  .00000000  00000+0  00000-0 0  9996
2 10034  55.0000  96.0000 0000000   0.0000 276.0000 14.98995063    15
CTC2_L_00155009-04
1 10035U 25168FS  26075.70042824  .00000000  00000+0  00000-0 0  9997
2 10035  55.0000  96.0000 0000000   0.0000   6.0000 14.98995063    17
CTC2_L_00155010-01
1 10036U 23028TR  26075.70042824  .00000000  00000+0  00000-0 0  9991
2 10036  55.0000 108.0000 0000000   0.0000 108.0000 14.98995063    15
CTC2_L_00155010-02
1 10037U 25346IK  26075.70042824  .00000000  00000+0  00000-0 0  9997
2 10037  55.0000 108.0000 0000000   0.0000 198.0000 14.98995063    15
CTC2_L_00155010-03
1 10038U 23336UE  26075.70042824  .00000000  00000+0  00000-0 0  9995
2 10038  55.0000 108.0000 0000000   0.0000 288.0000 14.98995063    16
CTC2_L_00155010-04
1 10039U 25168XV  26075.70042824  .00000000  00000+0  00000-0 0  9991
2 10039  55.0000 108.0000 0000000   0.0000  18.0000 14.98995063    18
CTC2_L_00155011-01
1 10040U 26493OJ  26075.70042824  .00000000  00000+0  00000-0 0  9995
2 10040  55.0000 120.0000 0000000   0.0000 120.0000 14.98995063    18
CTC2_L_00155011-02
1 10041U 22440BG  26075.70042824  .00000000  00000+0  00000-0 0  9994
2 10041  55.0000 120.0000 0000000   0.0000 210.0000 14.98995063    19
CTC2_L_00155011-03
1 10042U 23802VJ  26075.70042824  .00000000  00000+0  00000-0 0  9998
2 10042  55.0000 120.0000 0000000   0.0000 300.0000 14.98995063    10
CTC2_L_00155011-04
1 10043U 22109MN  26075.70042824  .00000000  00000+0  00000-0 0  9998
2 10043  55.0000 120.0000 0000000   0.0000  30.0000 14.98995063    11
CTC2_L_00155012-01
1 10044U 22887JH  26075.70042824  .00000000  00000+0  00000-0 0  9992
2 10044  55.0000 132.0000 0000000   0.0000 132.0000 14.98995063    18
CTC2_L_00155012-02
1 10045U 22513TU  26075.70042824  .00000000  00000+0  00000-0 0  9999
2 10045  55.0000 132.0000 0000000   0.0000 222.0000 14.98995063    19
CTC2_L_00155012-03
1 10046U 24979EG  26075.70042824  .00000000  00000+0  00000-0 0  9998
2 10046  55.0000 132.0000 0000000   0.0000 312.0000 14.98995063    10
CTC2_L_00155012-04
1 10047U 23671IN  26075.70042824  .00000000  00000+0  00000-0 0  9997
2 10047  55.0000 132.0000 0000000   0.0000  42.0000 14.98995063    11
CTC2_L_00155013-01
1 10048U 25992HS  26075.70042824  .00000000  00000+0  00000-0 0  9996
2 10048  55.0000 144.0000 0000000   0.0000 144.0000 14.98995063    18
CTC2_L_00155013-02
1 10049U 22146ZV  26075.70042824  .00000000  00000+0  00000-0 0  9995
2 10049  55.0000 144.0000 0000000   0.0000 234.0000 14.98995063    19
CTC2_L_00155013-03
1 10050U 25753SH  26075.70042824  .00000000  00000+0  00000-0 0  9994
2 10050  55.0000 144.0000 0000000   0.0000 324.0000 14.98995063    11
CTC2_L_00155013-04
1 10051U 22310U   26075.70042824  .00000000  00000+0  00000-0 0  9991
2 10051  55.0000 144.0000 0000000   0.0000  54.0000 14.98995063    12
CTC2_L_00155014-01
1 10052U 23118PQ  26075.70042824  .00000000  00000+0  00000-0 0  9999
2 10052  55.0000 156.0000 0000000   0.0000 156.0000 14.98995063    19
CTC2_L_00155014-02
1 10053U 26281D   26075.70042824  .00000000  00000+0  00000-0 0  9994
2 10053  55.0000 156.0000 0000000   0.0000 246.0000 14.98995063    10
CTC2_L_00155014-03
1 10054U 26532HZ  26075.70042824  .00000000  00000+0  00000-0 0  9994
2 10054  55.0000 156.0000 0000000   0.0000 336.0000 14.98995063    11
CTC2_L_00155014-04
1 10055U 25038XM  26075.70042824  .00000000  00000+0  00000-0 0  9995
2 10055  55.0000 156.0000 0000000   0.0000  66.0000 14.98995063    12
CTC2_L_00155015-01
1 10056U 24478UT  26075.70042824  .00000000  00000+0  00000-0 0  9993
2 10056  55.0000 168.0000 0000000   0.0000 168.0000 14.98995063    19
CTC2_L_00155015-02
1 10057U 22569G   26075.70042824  .00000000  00000+0  00000-0 0  9993
2 10057  55.0000 168.0000 0000000   0.0000 258.0000 14.98995063    10
CTC2_L_00155015-03
1 10058U 23088GD  26075.70042824  .00000000  00000+0  00000-0 0  9991
2 10058  55.0000 168.0000 0000000   0.0000 348.0000 14.98995063    11
CTC2_L_00155015-04
1 10059U 24623WH  26075.70042824  .00000000  00000+0  00000-0 0  9998
2 10059  55.0000 168.0000 0000000   0.0000  78.0000 14.98995063    12
CTC2_L_00155016-01
1 10060U 25275ZJ  26075.70042824  .00000000  00000+0  00000-0 0  9994
2 10060  55.0000 180.0000 0000000   0.0000 180.0000 14.98995063    12
CTC2_L_00155016-02
1 10061U 25203NB  26075.70042824  .00000000  00000+0  00000-0 0  9996
2 10061  55.0000 180.0000 0000000   0.0000 270.0000 14.98995063    13
